[{"OBJECT_NAME":"STARLINK-3825","OBJECT_ID":"2022-049AD","EPOCH":"2026-03-09T23:06:50.787648","MEAN_MOTION":15.08840024,"ECCENTRICITY":0.00013472,"INCLINATION":53.2173,"RA_OF_ASC_NODE":57.8901,"ARG_OF_PERICENTER":86.1487,"MEAN_ANOMALY":273.966,"EPHEMERIS_TYPE":0,"CLASSIFICATION_TYPE":"U","NORAD_CAT_ID":52478,"ELEMENT_SET_NO":999,"REV_AT_EPOCH":21353,"BSTAR":3.8105066e-5,"MEAN_MOTION_DOT":3.19e-6,"MEAN_MOTION_DDOT":0},{"OBJECT_NAME":"STRIX-2","OBJECT_ID":"2024-248A","EPOCH":"2026-03-09T23:00:54.819648","MEAN_MOTION":15.07630986,"ECCENTRICITY":0.00151844,"INCLINATION":97.6197,"RA_OF_ASC_NODE":25.3276,"ARG_OF_PERICENTER":319.5195,"MEAN_ANOMALY":40.4902,"EPHEMERIS_TYPE":0,"CLASSIFICATION_TYPE":"U","NORAD_CAT_ID":62406,"ELEMENT_SET_NO":999,"REV_AT_EPOCH":6663,"BSTAR":0.00066021351,"MEAN_MOTION_DOT":0.00010025,"MEAN_MOTION_DDOT":0}]
